{
"type": "FeatureCollection",
"name": "20221004",
"crs": { "type": "name", "properties": { "name": "urn:ogc:def:crs:OGC:1.3:CRS84" } },
"features": [
{ "type": "Feature", "properties": { "row order": 0, "date": "2022-10-04T00:00:00", "city": "Tehran" }, "geometry": { "type": "Point", "coordinates": [ 51.4223982, 35.6738886 ] } },
{ "type": "Feature", "properties": { "row order": 1, "date": "2022-10-04T00:00:00", "city": "Cairo" }, "geometry": { "type": "Point", "coordinates": [ 31.2480224, 30.0519062 ] } },
{ "type": "Feature", "properties": { "row order": 2, "date": "2022-10-04T00:00:00", "city": "Lahore" }, "geometry": { "type": "Point", "coordinates": [ 74.3480789, 31.5619174 ] } },
{ "type": "Feature", "properties": { "row order": 3, "date": "2022-10-04T00:00:00", "city": "Hong Kong" }, "geometry": { "type": "Point", "coordinates": [ 114.1830635, 22.3069268 ] } },
{ "type": "Feature", "properties": { "row order": 4, "date": "2022-10-04T00:00:00", "city": "Taipei" }, "geometry": { "type": "Point", "coordinates": [ 121.5683333, 25.0358333 ] } },
{ "type": "Feature", "properties": { "row order": 5, "date": "2022-10-04T00:00:00", "city": "Tianjin" }, "geometry": { "type": "Point", "coordinates": [ 117.196607282088308, 39.082771761979693 ] } },
{ "type": "Feature", "properties": { "row order": 6, "date": "2022-10-04T00:00:00", "city": "Beijing" }, "geometry": { "type": "Point", "coordinates": [ 116.394200892606108, 39.901720309862675 ] } },
{ "type": "Feature", "properties": { "row order": 7, "date": "2022-10-04T00:00:00", "city": "Chicago" }, "geometry": { "type": "Point", "coordinates": [ -87.635236553223379, 41.847961283364114 ] } }
]
}
