{
"type": "FeatureCollection",
"name": "2024-11-13",
"crs": { "type": "name", "properties": { "name": "urn:ogc:def:crs:OGC:1.3:CRS84" } },
"features": [
{ "type": "Feature", "properties": { "date": "2024-11-13", "city": "Osaka", "cloud_cover": 11.333333, "pop_max": 11294000, "row_order": 0 }, "geometry": { "type": "Point", "coordinates": [ 135.503754190062324, 34.691095244477914 ] } },
{ "type": "Feature", "properties": { "date": "2024-11-13", "city": "Dhaka", "cloud_cover": 8.625, "pop_max": 12797394, "row_order": 1 }, "geometry": { "type": "Point", "coordinates": [ 90.4066336, 23.7250056 ] } },
{ "type": "Feature", "properties": { "date": "2024-11-13", "city": "Delhi", "cloud_cover": 0.0, "pop_max": 15926000, "row_order": 2 }, "geometry": { "type": "Point", "coordinates": [ 77.2280582, 28.6719388 ] } },
{ "type": "Feature", "properties": { "date": "2024-11-13", "city": "Karachi", "cloud_cover": 0.16666667, "pop_max": 12130000, "row_order": 3 }, "geometry": { "type": "Point", "coordinates": [ 66.9880631, 24.8719381 ] } },
{ "type": "Feature", "properties": { "date": "2024-11-13", "city": "Mumbai", "cloud_cover": 3.4166667, "pop_max": 18978000, "row_order": 4 }, "geometry": { "type": "Point", "coordinates": [ 72.875839397265295, 19.06840847529168 ] } },
{ "type": "Feature", "properties": { "date": "2024-11-13", "city": "New York", "cloud_cover": 0.33333334, "pop_max": 19040000, "row_order": 5 }, "geometry": { "type": "Point", "coordinates": [ -73.995717543616976, 40.721561749727663 ] } },
{ "type": "Feature", "properties": { "date": "2024-11-13", "city": "Los Angeles", "cloud_cover": 3.875, "pop_max": 12500000, "row_order": 6 }, "geometry": { "type": "Point", "coordinates": [ -118.231986472233174, 34.049219260337075 ] } },
{ "type": "Feature", "properties": { "date": "2024-11-13", "city": "Buenos Aires", "cloud_cover": 5.8333335, "pop_max": 12795000, "row_order": 7 }, "geometry": { "type": "Point", "coordinates": [ -58.432512687664257, -34.610714591392551 ] } }
]
}
