{
"type": "FeatureCollection",
"name": "2024-11-11",
"crs": { "type": "name", "properties": { "name": "urn:ogc:def:crs:OGC:1.3:CRS84" } },
"features": [
{ "type": "Feature", "properties": { "date": "2024-11-11", "city": "Osaka", "cloud_cover": 16.75, "pop_max": 11294000, "row_order": 0 }, "geometry": { "type": "Point", "coordinates": [ 135.503754190062324, 34.691095244477914 ] } },
{ "type": "Feature", "properties": { "date": "2024-11-11", "city": "Shanghai", "cloud_cover": 16.5, "pop_max": 14987000, "row_order": 1 }, "geometry": { "type": "Point", "coordinates": [ 121.4345588, 31.2183983 ] } },
{ "type": "Feature", "properties": { "date": "2024-11-11", "city": "Wuhan", "cloud_cover": 1.3333334, "pop_max": 7243000, "row_order": 2 }, "geometry": { "type": "Point", "coordinates": [ 114.2680712, 30.5819772 ] } },
{ "type": "Feature", "properties": { "date": "2024-11-11", "city": "Delhi", "cloud_cover": 0.83333331, "pop_max": 15926000, "row_order": 3 }, "geometry": { "type": "Point", "coordinates": [ 77.2280582, 28.6719388 ] } },
{ "type": "Feature", "properties": { "date": "2024-11-11", "city": "Lahore", "cloud_cover": 7.4166665, "pop_max": 6577000, "row_order": 4 }, "geometry": { "type": "Point", "coordinates": [ 74.3480789, 31.5619174 ] } },
{ "type": "Feature", "properties": { "date": "2024-11-11", "city": "Karachi", "cloud_cover": 15.25, "pop_max": 12130000, "row_order": 5 }, "geometry": { "type": "Point", "coordinates": [ 66.9880631, 24.8719381 ] } },
{ "type": "Feature", "properties": { "date": "2024-11-11", "city": "Mumbai", "cloud_cover": 0.5, "pop_max": 18978000, "row_order": 6 }, "geometry": { "type": "Point", "coordinates": [ 72.875839397265295, 19.06840847529168 ] } },
{ "type": "Feature", "properties": { "date": "2024-11-11", "city": "Rio de Janeiro", "cloud_cover": 12.083333, "pop_max": 11748000, "row_order": 7 }, "geometry": { "type": "Point", "coordinates": [ -43.212117466834385, -22.907308056882364 ] } }
]
}
