{
"type": "FeatureCollection",
"name": "2024-11-10",
"crs": { "type": "name", "properties": { "name": "urn:ogc:def:crs:OGC:1.3:CRS84" } },
"features": [
{ "type": "Feature", "properties": { "date": "2024-11-10", "city": "Wuhan", "cloud_cover": 1.4166666, "pop_max": 7243000, "row_order": 0 }, "geometry": { "type": "Point", "coordinates": [ 114.2680712, 30.5819772 ] } },
{ "type": "Feature", "properties": { "date": "2024-11-10", "city": "Dhaka", "cloud_cover": 0.29166666, "pop_max": 12797394, "row_order": 1 }, "geometry": { "type": "Point", "coordinates": [ 90.4066336, 23.7250056 ] } },
{ "type": "Feature", "properties": { "date": "2024-11-10", "city": "Kolkata", "cloud_cover": 9.333333, "pop_max": 14787000, "row_order": 2 }, "geometry": { "type": "Point", "coordinates": [ 88.369125504438856, 22.569578883795778 ] } },
{ "type": "Feature", "properties": { "date": "2024-11-10", "city": "Delhi", "cloud_cover": 0.041666668, "pop_max": 15926000, "row_order": 3 }, "geometry": { "type": "Point", "coordinates": [ 77.2280582, 28.6719388 ] } },
{ "type": "Feature", "properties": { "date": "2024-11-10", "city": "Lahore", "cloud_cover": 1.4583334, "pop_max": 6577000, "row_order": 4 }, "geometry": { "type": "Point", "coordinates": [ 74.3480789, 31.5619174 ] } },
{ "type": "Feature", "properties": { "date": "2024-11-10", "city": "Karachi", "cloud_cover": 5.6666665, "pop_max": 12130000, "row_order": 5 }, "geometry": { "type": "Point", "coordinates": [ 66.9880631, 24.8719381 ] } },
{ "type": "Feature", "properties": { "date": "2024-11-10", "city": "Mumbai", "cloud_cover": 0.125, "pop_max": 18978000, "row_order": 6 }, "geometry": { "type": "Point", "coordinates": [ 72.875839397265295, 19.06840847529168 ] } },
{ "type": "Feature", "properties": { "date": "2024-11-10", "city": "Tehran", "cloud_cover": 10.458333, "pop_max": 7873000, "row_order": 7 }, "geometry": { "type": "Point", "coordinates": [ 51.4223982, 35.6738886 ] } }
]
}
