{
"type": "FeatureCollection",
"name": "ordered_points_2024-11-12",
"crs": { "type": "name", "properties": { "name": "urn:ogc:def:crs:OGC:1.3:CRS84" } },
"features": [
{ "type": "Feature", "properties": { "row_order": 0, "city": "Delhi", "cloud_cover": 0.0 }, "geometry": { "type": "Point", "coordinates": [ 77.2280582, 28.6719388 ] } },
{ "type": "Feature", "properties": { "row_order": 1, "city": "Lahore", "cloud_cover": 0.25 }, "geometry": { "type": "Point", "coordinates": [ 74.3480789, 31.5619174 ] } },
{ "type": "Feature", "properties": { "row_order": 2, "city": "Karachi", "cloud_cover": 10.083333 }, "geometry": { "type": "Point", "coordinates": [ 66.9880631, 24.8719381 ] } },
{ "type": "Feature", "properties": { "row_order": 3, "city": "Mumbai", "cloud_cover": 2.25 }, "geometry": { "type": "Point", "coordinates": [ 72.875839397265295, 19.06840847529168 ] } },
{ "type": "Feature", "properties": { "row_order": 4, "city": "Seoul", "cloud_cover": 10.708333 }, "geometry": { "type": "Point", "coordinates": [ 126.9977851, 37.568295 ] } },
{ "type": "Feature", "properties": { "row_order": 5, "city": "Osaka", "cloud_cover": 5.7916665 }, "geometry": { "type": "Point", "coordinates": [ 135.503754190062324, 34.691095244477914 ] } },
{ "type": "Feature", "properties": { "row_order": 6, "city": "Rio de Janeiro", "cloud_cover": 9.166667 }, "geometry": { "type": "Point", "coordinates": [ -43.212117466834385, -22.907308056882364 ] } },
{ "type": "Feature", "properties": { "row_order": 7, "city": "New York", "cloud_cover": 8.416667 }, "geometry": { "type": "Point", "coordinates": [ -73.995717543616976, 40.721561749727663 ] } }
]
}
