{
"type": "FeatureCollection",
"name": "ordered_points_2024-11-10",
"crs": { "type": "name", "properties": { "name": "urn:ogc:def:crs:OGC:1.3:CRS84" } },
"features": [
{ "type": "Feature", "properties": { "row_order": 0, "city": "Delhi", "cloud_cover": 0.041666668 }, "geometry": { "type": "Point", "coordinates": [ 77.2280582, 28.6719388 ] } },
{ "type": "Feature", "properties": { "row_order": 1, "city": "Lahore", "cloud_cover": 1.4583334 }, "geometry": { "type": "Point", "coordinates": [ 74.3480789, 31.5619174 ] } },
{ "type": "Feature", "properties": { "row_order": 2, "city": "Karachi", "cloud_cover": 5.6666665 }, "geometry": { "type": "Point", "coordinates": [ 66.9880631, 24.8719381 ] } },
{ "type": "Feature", "properties": { "row_order": 3, "city": "Mumbai", "cloud_cover": 0.125 }, "geometry": { "type": "Point", "coordinates": [ 72.875839397265295, 19.06840847529168 ] } },
{ "type": "Feature", "properties": { "row_order": 4, "city": "Kolkata", "cloud_cover": 9.333333 }, "geometry": { "type": "Point", "coordinates": [ 88.369125504438856, 22.569578883795778 ] } },
{ "type": "Feature", "properties": { "row_order": 5, "city": "Dhaka", "cloud_cover": 0.29166666 }, "geometry": { "type": "Point", "coordinates": [ 90.4066336, 23.7250056 ] } },
{ "type": "Feature", "properties": { "row_order": 6, "city": "Wuhan", "cloud_cover": 1.4166666 }, "geometry": { "type": "Point", "coordinates": [ 114.2680712, 30.5819772 ] } },
{ "type": "Feature", "properties": { "row_order": 7, "city": "Tehran", "cloud_cover": 10.458333 }, "geometry": { "type": "Point", "coordinates": [ 51.4223982, 35.6738886 ] } }
]
}
