{
"type": "FeatureCollection",
"name": "ordered_points_2022-10-08",
"crs": { "type": "name", "properties": { "name": "urn:ogc:def:crs:OGC:1.3:CRS84" } },
"features": [
{ "type": "Feature", "properties": { "row_order": 0, "city": "Tehran" }, "geometry": { "type": "Point", "coordinates": [ 51.4223982, 35.6738886 ] } },
{ "type": "Feature", "properties": { "row_order": 1, "city": "Karachi" }, "geometry": { "type": "Point", "coordinates": [ 66.9880631, 24.8719381 ] } },
{ "type": "Feature", "properties": { "row_order": 2, "city": "Lahore" }, "geometry": { "type": "Point", "coordinates": [ 74.3480789, 31.5619174 ] } },
{ "type": "Feature", "properties": { "row_order": 3, "city": "Hong Kong" }, "geometry": { "type": "Point", "coordinates": [ 114.1830635, 22.3069268 ] } },
{ "type": "Feature", "properties": { "row_order": 4, "city": "Paris" }, "geometry": { "type": "Point", "coordinates": [ 2.352992461539213, 48.858092316269108 ] } },
{ "type": "Feature", "properties": { "row_order": 5, "city": "London" }, "geometry": { "type": "Point", "coordinates": [ -0.1186677, 51.5019406 ] } },
{ "type": "Feature", "properties": { "row_order": 6, "city": "Chicago" }, "geometry": { "type": "Point", "coordinates": [ -87.635236553223379, 41.847961283364114 ] } },
{ "type": "Feature", "properties": { "row_order": 7, "city": "Los Angeles" }, "geometry": { "type": "Point", "coordinates": [ -118.231986472233174, 34.049219260337075 ] } }
]
}
