{
"type": "FeatureCollection",
"name": "ordered_points_with_cities",
"crs": { "type": "name", "properties": { "name": "urn:ogc:def:crs:OGC:1.3:CRS84" } },
"features": [
{ "type": "Feature", "properties": { "date": "2024-11-07", "city": "Mumbai", "cloud_cover": 0.0, "pop_max": 18978000, "row_order": 0 }, "geometry": { "type": "Point", "coordinates": [ 72.875839397265295, 19.06840847529168 ] } },
{ "type": "Feature", "properties": { "date": "2024-11-07", "city": "Delhi", "cloud_cover": 0.125, "pop_max": 15926000, "row_order": 1 }, "geometry": { "type": "Point", "coordinates": [ 77.2280582, 28.6719388 ] } },
{ "type": "Feature", "properties": { "date": "2024-11-07", "city": "Lahore", "cloud_cover": 3.625, "pop_max": 6577000, "row_order": 2 }, "geometry": { "type": "Point", "coordinates": [ 74.3480789, 31.5619174 ] } },
{ "type": "Feature", "properties": { "date": "2024-11-07", "city": "Kolkata", "cloud_cover": 6.2916665, "pop_max": 14787000, "row_order": 3 }, "geometry": { "type": "Point", "coordinates": [ 88.369125504438856, 22.569578883795778 ] } },
{ "type": "Feature", "properties": { "date": "2024-11-07", "city": "Dhaka", "cloud_cover": 0.83333331, "pop_max": 12797394, "row_order": 4 }, "geometry": { "type": "Point", "coordinates": [ 90.4066336, 23.7250056 ] } },
{ "type": "Feature", "properties": { "date": "2024-11-07", "city": "Wuhan", "cloud_cover": 5.5416665, "pop_max": 7243000, "row_order": 5 }, "geometry": { "type": "Point", "coordinates": [ 114.2680712, 30.5819772 ] } },
{ "type": "Feature", "properties": { "date": "2024-11-07", "city": "Seoul", "cloud_cover": 1.9583334, "pop_max": 9796000, "row_order": 6 }, "geometry": { "type": "Point", "coordinates": [ 126.9977851, 37.568295 ] } },
{ "type": "Feature", "properties": { "date": "2024-11-07", "city": "Istanbul", "cloud_cover": 5.8333335, "pop_max": 10061000, "row_order": 7 }, "geometry": { "type": "Point", "coordinates": [ 28.974276816755541, 41.017601735072489 ] } },
{ "type": "Feature", "properties": { "date": "2024-11-08", "city": "New York", "cloud_cover": 0.0, "pop_max": 19040000, "row_order": 0 }, "geometry": { "type": "Point", "coordinates": [ -73.995717543616976, 40.721561749727663 ] } },
{ "type": "Feature", "properties": { "date": "2024-11-08", "city": "Los Angeles", "cloud_cover": 0.0, "pop_max": 12500000, "row_order": 1 }, "geometry": { "type": "Point", "coordinates": [ -118.231986472233174, 34.049219260337075 ] } },
{ "type": "Feature", "properties": { "date": "2024-11-08", "city": "Mumbai", "cloud_cover": 0.16666667, "pop_max": 18978000, "row_order": 2 }, "geometry": { "type": "Point", "coordinates": [ 72.875839397265295, 19.06840847529168 ] } },
{ "type": "Feature", "properties": { "date": "2024-11-08", "city": "Delhi", "cloud_cover": 0.79166669, "pop_max": 15926000, "row_order": 3 }, "geometry": { "type": "Point", "coordinates": [ 77.2280582, 28.6719388 ] } },
{ "type": "Feature", "properties": { "date": "2024-11-08", "city": "Lahore", "cloud_cover": 7.8333335, "pop_max": 6577000, "row_order": 4 }, "geometry": { "type": "Point", "coordinates": [ 74.3480789, 31.5619174 ] } },
{ "type": "Feature", "properties": { "date": "2024-11-08", "city": "Kolkata", "cloud_cover": 3.2083333, "pop_max": 14787000, "row_order": 5 }, "geometry": { "type": "Point", "coordinates": [ 88.369125504438856, 22.569578883795778 ] } },
{ "type": "Feature", "properties": { "date": "2024-11-08", "city": "Dhaka", "cloud_cover": 0.0, "pop_max": 12797394, "row_order": 6 }, "geometry": { "type": "Point", "coordinates": [ 90.4066336, 23.7250056 ] } },
{ "type": "Feature", "properties": { "date": "2024-11-08", "city": "Seoul", "cloud_cover": 8.916667, "pop_max": 9796000, "row_order": 7 }, "geometry": { "type": "Point", "coordinates": [ 126.9977851, 37.568295 ] } },
{ "type": "Feature", "properties": { "date": "2024-11-09", "city": "Dhaka", "cloud_cover": 0.0, "pop_max": 12797394, "row_order": 0 }, "geometry": { "type": "Point", "coordinates": [ 90.4066336, 23.7250056 ] } },
{ "type": "Feature", "properties": { "date": "2024-11-09", "city": "Kolkata", "cloud_cover": 2.0416667, "pop_max": 14787000, "row_order": 1 }, "geometry": { "type": "Point", "coordinates": [ 88.369125504438856, 22.569578883795778 ] } },
{ "type": "Feature", "properties": { "date": "2024-11-09", "city": "Delhi", "cloud_cover": 2.4166667, "pop_max": 15926000, "row_order": 2 }, "geometry": { "type": "Point", "coordinates": [ 77.2280582, 28.6719388 ] } },
{ "type": "Feature", "properties": { "date": "2024-11-09", "city": "Lahore", "cloud_cover": 0.083333336, "pop_max": 6577000, "row_order": 3 }, "geometry": { "type": "Point", "coordinates": [ 74.3480789, 31.5619174 ] } },
{ "type": "Feature", "properties": { "date": "2024-11-09", "city": "Karachi", "cloud_cover": 13.916667, "pop_max": 12130000, "row_order": 4 }, "geometry": { "type": "Point", "coordinates": [ 66.9880631, 24.8719381 ] } },
{ "type": "Feature", "properties": { "date": "2024-11-09", "city": "Mumbai", "cloud_cover": 0.125, "pop_max": 18978000, "row_order": 5 }, "geometry": { "type": "Point", "coordinates": [ 72.875839397265295, 19.06840847529168 ] } },
{ "type": "Feature", "properties": { "date": "2024-11-09", "city": "New York", "cloud_cover": 7.25, "pop_max": 19040000, "row_order": 6 }, "geometry": { "type": "Point", "coordinates": [ -73.995717543616976, 40.721561749727663 ] } },
{ "type": "Feature", "properties": { "date": "2024-11-09", "city": "Los Angeles", "cloud_cover": 0.0, "pop_max": 12500000, "row_order": 7 }, "geometry": { "type": "Point", "coordinates": [ -118.231986472233174, 34.049219260337075 ] } },
{ "type": "Feature", "properties": { "date": "2024-11-10", "city": "Delhi", "cloud_cover": 0.041666668, "pop_max": 15926000, "row_order": 0 }, "geometry": { "type": "Point", "coordinates": [ 77.2280582, 28.6719388 ] } },
{ "type": "Feature", "properties": { "date": "2024-11-10", "city": "Lahore", "cloud_cover": 1.4583334, "pop_max": 6577000, "row_order": 1 }, "geometry": { "type": "Point", "coordinates": [ 74.3480789, 31.5619174 ] } },
{ "type": "Feature", "properties": { "date": "2024-11-10", "city": "Karachi", "cloud_cover": 5.6666665, "pop_max": 12130000, "row_order": 2 }, "geometry": { "type": "Point", "coordinates": [ 66.9880631, 24.8719381 ] } },
{ "type": "Feature", "properties": { "date": "2024-11-10", "city": "Mumbai", "cloud_cover": 0.125, "pop_max": 18978000, "row_order": 3 }, "geometry": { "type": "Point", "coordinates": [ 72.875839397265295, 19.06840847529168 ] } },
{ "type": "Feature", "properties": { "date": "2024-11-10", "city": "Kolkata", "cloud_cover": 9.333333, "pop_max": 14787000, "row_order": 4 }, "geometry": { "type": "Point", "coordinates": [ 88.369125504438856, 22.569578883795778 ] } },
{ "type": "Feature", "properties": { "date": "2024-11-10", "city": "Dhaka", "cloud_cover": 0.29166666, "pop_max": 12797394, "row_order": 5 }, "geometry": { "type": "Point", "coordinates": [ 90.4066336, 23.7250056 ] } },
{ "type": "Feature", "properties": { "date": "2024-11-10", "city": "Wuhan", "cloud_cover": 1.4166666, "pop_max": 7243000, "row_order": 6 }, "geometry": { "type": "Point", "coordinates": [ 114.2680712, 30.5819772 ] } },
{ "type": "Feature", "properties": { "date": "2024-11-10", "city": "Tehran", "cloud_cover": 10.458333, "pop_max": 7873000, "row_order": 7 }, "geometry": { "type": "Point", "coordinates": [ 51.4223982, 35.6738886 ] } },
{ "type": "Feature", "properties": { "date": "2024-11-11", "city": "Mumbai", "cloud_cover": 0.5, "pop_max": 18978000, "row_order": 0 }, "geometry": { "type": "Point", "coordinates": [ 72.875839397265295, 19.06840847529168 ] } },
{ "type": "Feature", "properties": { "date": "2024-11-11", "city": "Karachi", "cloud_cover": 15.25, "pop_max": 12130000, "row_order": 1 }, "geometry": { "type": "Point", "coordinates": [ 66.9880631, 24.8719381 ] } },
{ "type": "Feature", "properties": { "date": "2024-11-11", "city": "Lahore", "cloud_cover": 7.4166665, "pop_max": 6577000, "row_order": 2 }, "geometry": { "type": "Point", "coordinates": [ 74.3480789, 31.5619174 ] } },
{ "type": "Feature", "properties": { "date": "2024-11-11", "city": "Delhi", "cloud_cover": 0.83333331, "pop_max": 15926000, "row_order": 3 }, "geometry": { "type": "Point", "coordinates": [ 77.2280582, 28.6719388 ] } },
{ "type": "Feature", "properties": { "date": "2024-11-11", "city": "Wuhan", "cloud_cover": 1.3333334, "pop_max": 7243000, "row_order": 4 }, "geometry": { "type": "Point", "coordinates": [ 114.2680712, 30.5819772 ] } },
{ "type": "Feature", "properties": { "date": "2024-11-11", "city": "Shanghai", "cloud_cover": 16.5, "pop_max": 14987000, "row_order": 5 }, "geometry": { "type": "Point", "coordinates": [ 121.4345588, 31.2183983 ] } },
{ "type": "Feature", "properties": { "date": "2024-11-11", "city": "Osaka", "cloud_cover": 16.75, "pop_max": 11294000, "row_order": 6 }, "geometry": { "type": "Point", "coordinates": [ 135.503754190062324, 34.691095244477914 ] } },
{ "type": "Feature", "properties": { "date": "2024-11-11", "city": "Rio de Janeiro", "cloud_cover": 12.083333, "pop_max": 11748000, "row_order": 7 }, "geometry": { "type": "Point", "coordinates": [ -43.212117466834385, -22.907308056882364 ] } },
{ "type": "Feature", "properties": { "date": "2024-11-12", "city": "Delhi", "cloud_cover": 0.0, "pop_max": 15926000, "row_order": 0 }, "geometry": { "type": "Point", "coordinates": [ 77.2280582, 28.6719388 ] } },
{ "type": "Feature", "properties": { "date": "2024-11-12", "city": "Lahore", "cloud_cover": 0.25, "pop_max": 6577000, "row_order": 1 }, "geometry": { "type": "Point", "coordinates": [ 74.3480789, 31.5619174 ] } },
{ "type": "Feature", "properties": { "date": "2024-11-12", "city": "Karachi", "cloud_cover": 10.083333, "pop_max": 12130000, "row_order": 2 }, "geometry": { "type": "Point", "coordinates": [ 66.9880631, 24.8719381 ] } },
{ "type": "Feature", "properties": { "date": "2024-11-12", "city": "Mumbai", "cloud_cover": 2.25, "pop_max": 18978000, "row_order": 3 }, "geometry": { "type": "Point", "coordinates": [ 72.875839397265295, 19.06840847529168 ] } },
{ "type": "Feature", "properties": { "date": "2024-11-12", "city": "Seoul", "cloud_cover": 10.708333, "pop_max": 9796000, "row_order": 4 }, "geometry": { "type": "Point", "coordinates": [ 126.9977851, 37.568295 ] } },
{ "type": "Feature", "properties": { "date": "2024-11-12", "city": "Osaka", "cloud_cover": 5.7916665, "pop_max": 11294000, "row_order": 5 }, "geometry": { "type": "Point", "coordinates": [ 135.503754190062324, 34.691095244477914 ] } },
{ "type": "Feature", "properties": { "date": "2024-11-12", "city": "Rio de Janeiro", "cloud_cover": 9.166667, "pop_max": 11748000, "row_order": 6 }, "geometry": { "type": "Point", "coordinates": [ -43.212117466834385, -22.907308056882364 ] } },
{ "type": "Feature", "properties": { "date": "2024-11-12", "city": "New York", "cloud_cover": 8.416667, "pop_max": 19040000, "row_order": 7 }, "geometry": { "type": "Point", "coordinates": [ -73.995717543616976, 40.721561749727663 ] } },
{ "type": "Feature", "properties": { "date": "2024-11-13", "city": "Delhi", "cloud_cover": 0.0, "pop_max": 15926000, "row_order": 0 }, "geometry": { "type": "Point", "coordinates": [ 77.2280582, 28.6719388 ] } },
{ "type": "Feature", "properties": { "date": "2024-11-13", "city": "Mumbai", "cloud_cover": 3.4166667, "pop_max": 18978000, "row_order": 1 }, "geometry": { "type": "Point", "coordinates": [ 72.875839397265295, 19.06840847529168 ] } },
{ "type": "Feature", "properties": { "date": "2024-11-13", "city": "Karachi", "cloud_cover": 0.16666667, "pop_max": 12130000, "row_order": 2 }, "geometry": { "type": "Point", "coordinates": [ 66.9880631, 24.8719381 ] } },
{ "type": "Feature", "properties": { "date": "2024-11-13", "city": "Dhaka", "cloud_cover": 8.625, "pop_max": 12797394, "row_order": 3 }, "geometry": { "type": "Point", "coordinates": [ 90.4066336, 23.7250056 ] } },
{ "type": "Feature", "properties": { "date": "2024-11-13", "city": "Osaka", "cloud_cover": 11.333333, "pop_max": 11294000, "row_order": 4 }, "geometry": { "type": "Point", "coordinates": [ 135.503754190062324, 34.691095244477914 ] } },
{ "type": "Feature", "properties": { "date": "2024-11-13", "city": "Buenos Aires", "cloud_cover": 5.8333335, "pop_max": 12795000, "row_order": 5 }, "geometry": { "type": "Point", "coordinates": [ -58.432512687664257, -34.610714591392551 ] } },
{ "type": "Feature", "properties": { "date": "2024-11-13", "city": "New York", "cloud_cover": 0.33333334, "pop_max": 19040000, "row_order": 6 }, "geometry": { "type": "Point", "coordinates": [ -73.995717543616976, 40.721561749727663 ] } },
{ "type": "Feature", "properties": { "date": "2024-11-13", "city": "Los Angeles", "cloud_cover": 3.875, "pop_max": 12500000, "row_order": 7 }, "geometry": { "type": "Point", "coordinates": [ -118.231986472233174, 34.049219260337075 ] } }
]
}
