{
"type": "FeatureCollection",
"name": "ordered_points_2024-11-11",
"crs": { "type": "name", "properties": { "name": "urn:ogc:def:crs:OGC:1.3:CRS84" } },
"features": [
{ "type": "Feature", "properties": { "row_order": 0, "city": "Mumbai", "cloud_cover": 0.5 }, "geometry": { "type": "Point", "coordinates": [ 72.875839397265295, 19.06840847529168 ] } },
{ "type": "Feature", "properties": { "row_order": 1, "city": "Karachi", "cloud_cover": 15.25 }, "geometry": { "type": "Point", "coordinates": [ 66.9880631, 24.8719381 ] } },
{ "type": "Feature", "properties": { "row_order": 2, "city": "Lahore", "cloud_cover": 7.4166665 }, "geometry": { "type": "Point", "coordinates": [ 74.3480789, 31.5619174 ] } },
{ "type": "Feature", "properties": { "row_order": 3, "city": "Delhi", "cloud_cover": 0.83333331 }, "geometry": { "type": "Point", "coordinates": [ 77.2280582, 28.6719388 ] } },
{ "type": "Feature", "properties": { "row_order": 4, "city": "Wuhan", "cloud_cover": 1.3333334 }, "geometry": { "type": "Point", "coordinates": [ 114.2680712, 30.5819772 ] } },
{ "type": "Feature", "properties": { "row_order": 5, "city": "Shanghai", "cloud_cover": 16.5 }, "geometry": { "type": "Point", "coordinates": [ 121.4345588, 31.2183983 ] } },
{ "type": "Feature", "properties": { "row_order": 6, "city": "Osaka", "cloud_cover": 16.75 }, "geometry": { "type": "Point", "coordinates": [ 135.503754190062324, 34.691095244477914 ] } },
{ "type": "Feature", "properties": { "row_order": 7, "city": "Rio de Janeiro", "cloud_cover": 12.083333 }, "geometry": { "type": "Point", "coordinates": [ -43.212117466834385, -22.907308056882364 ] } }
]
}
