{
"type": "FeatureCollection",
"name": "ordered_points_2024-11-08",
"crs": { "type": "name", "properties": { "name": "urn:ogc:def:crs:OGC:1.3:CRS84" } },
"features": [
{ "type": "Feature", "properties": { "row_order": 0, "city": "New York", "cloud_cover": 0.0 }, "geometry": { "type": "Point", "coordinates": [ -73.995717543616976, 40.721561749727663 ] } },
{ "type": "Feature", "properties": { "row_order": 1, "city": "Los Angeles", "cloud_cover": 0.0 }, "geometry": { "type": "Point", "coordinates": [ -118.231986472233174, 34.049219260337075 ] } },
{ "type": "Feature", "properties": { "row_order": 2, "city": "Mumbai", "cloud_cover": 0.16666667 }, "geometry": { "type": "Point", "coordinates": [ 72.875839397265295, 19.06840847529168 ] } },
{ "type": "Feature", "properties": { "row_order": 3, "city": "Delhi", "cloud_cover": 0.79166669 }, "geometry": { "type": "Point", "coordinates": [ 77.2280582, 28.6719388 ] } },
{ "type": "Feature", "properties": { "row_order": 4, "city": "Lahore", "cloud_cover": 7.8333335 }, "geometry": { "type": "Point", "coordinates": [ 74.3480789, 31.5619174 ] } },
{ "type": "Feature", "properties": { "row_order": 5, "city": "Kolkata", "cloud_cover": 3.2083333 }, "geometry": { "type": "Point", "coordinates": [ 88.369125504438856, 22.569578883795778 ] } },
{ "type": "Feature", "properties": { "row_order": 6, "city": "Dhaka", "cloud_cover": 0.0 }, "geometry": { "type": "Point", "coordinates": [ 90.4066336, 23.7250056 ] } },
{ "type": "Feature", "properties": { "row_order": 7, "city": "Seoul", "cloud_cover": 8.916667 }, "geometry": { "type": "Point", "coordinates": [ 126.9977851, 37.568295 ] } }
]
}
