{
"type": "FeatureCollection",
"name": "ordered_points_2024-11-07",
"crs": { "type": "name", "properties": { "name": "urn:ogc:def:crs:OGC:1.3:CRS84" } },
"features": [
{ "type": "Feature", "properties": { "row_order": 0, "city": "Mumbai", "cloud_cover": 0.0 }, "geometry": { "type": "Point", "coordinates": [ 72.875839397265295, 19.06840847529168 ] } },
{ "type": "Feature", "properties": { "row_order": 1, "city": "Delhi", "cloud_cover": 0.125 }, "geometry": { "type": "Point", "coordinates": [ 77.2280582, 28.6719388 ] } },
{ "type": "Feature", "properties": { "row_order": 2, "city": "Lahore", "cloud_cover": 3.625 }, "geometry": { "type": "Point", "coordinates": [ 74.3480789, 31.5619174 ] } },
{ "type": "Feature", "properties": { "row_order": 3, "city": "Kolkata", "cloud_cover": 6.2916665 }, "geometry": { "type": "Point", "coordinates": [ 88.369125504438856, 22.569578883795778 ] } },
{ "type": "Feature", "properties": { "row_order": 4, "city": "Dhaka", "cloud_cover": 0.83333331 }, "geometry": { "type": "Point", "coordinates": [ 90.4066336, 23.7250056 ] } },
{ "type": "Feature", "properties": { "row_order": 5, "city": "Wuhan", "cloud_cover": 5.5416665 }, "geometry": { "type": "Point", "coordinates": [ 114.2680712, 30.5819772 ] } },
{ "type": "Feature", "properties": { "row_order": 6, "city": "Seoul", "cloud_cover": 1.9583334 }, "geometry": { "type": "Point", "coordinates": [ 126.9977851, 37.568295 ] } },
{ "type": "Feature", "properties": { "row_order": 7, "city": "Istanbul", "cloud_cover": 5.8333335 }, "geometry": { "type": "Point", "coordinates": [ 28.974276816755541, 41.017601735072489 ] } }
]
}
